{
    "links": {
        "self": "http://www.neowsapp.com/rest/v1/neo/3372214?api_key=iIulBulltgU6a56xZRHN4H3l9WmuAYTsLGpBGhQ2"
    },
    "id": "3372214",
    "neo_reference_id": "3372214",
    "name": "(2007 FQ3)",
    "designation": "2007 FQ3",
    "nasa_jpl_url": "http://ssd.jpl.nasa.gov/sbdb.cgi?sstr=3372214",
    "absolute_magnitude_h": 25.6,
    "estimated_diameter": {
        "kilometers": {
            "estimated_diameter_min": 0.0201629919,
            "estimated_diameter_max": 0.0450858206
        },
        "meters": {
            "estimated_diameter_min": 20.1629919443,
            "estimated_diameter_max": 45.0858206172
        },
        "miles": {
            "estimated_diameter_min": 0.0125286985,
            "estimated_diameter_max": 0.0280150214
        },
        "feet": {
            "estimated_diameter_min": 66.1515504905,
            "estimated_diameter_max": 147.9193637137
        }
    },
    "is_potentially_hazardous_asteroid": false,
    "close_approach_data": [
        {
            "close_approach_date": "2007-03-26",
            "close_approach_date_full": "2007-Mar-26 14:00",
            "epoch_date_close_approach": 1174917600000,
            "relative_velocity": {
                "kilometers_per_second": "6.1668633999",
                "kilometers_per_hour": "22200.7082397633",
                "miles_per_hour": "13794.6567393129"
            },
            "miss_distance": {
                "astronomical": "0.0610793547",
                "lunar": "23.7598689783",
                "kilometers": "9137341.364094489",
                "miles": "5677680.6460983882"
            },
            "orbiting_body": "Earth"
        }
    ],
    "orbital_data": {
        "orbit_id": "7",
        "orbit_determination_date": "2017-04-06 09:06:39",
        "first_observation_date": "2007-03-20",
        "last_observation_date": "2007-03-22",
        "data_arc_in_days": 2,
        "observations_used": 16,
        "orbit_uncertainty": "8",
        "minimum_orbit_intersection": ".0603617",
        "jupiter_tisserand_invariant": "3.399",
        "epoch_osculation": "2454180.5",
        "eccentricity": ".5359080311964055",
        "semi_major_axis": "2.280281445978583",
        "inclination": "1.940794625977199",
        "ascending_node_longitude": "182.8621309577001",
        "orbital_period": "1257.711717841357",
        "perihelion_distance": "1.058260305690508",
        "perihelion_argument": "2.794168853632853",
        "aphelion_distance": "3.502302586266659",
        "perihelion_time": "2454185.965259844070",
        "mean_anomaly": "358.4356561873797",
        "mean_motion": ".2862341146172013",
        "equinox": "J2000",
        "orbit_class": {
            "orbit_class_type": "AMO",
            "orbit_class_description": "Near-Earth asteroid orbits similar to that of 1221 Amor",
            "orbit_class_range": "1.017 AU < q (perihelion) < 1.3 AU"
        }
    },
    "is_sentry_object": false
}